ONEWEB-0171             
1 48070U 21025AE  25077.47626481 -.00000138  00000+0 -41334-3 0  9999
2 48070  87.8928  50.8200 0001942  80.2817 279.8531 13.13467876193790
ONEWEB-0172             
1 48071U 21025AF  25077.45595133  .00000317  00000+0  83200-3 0  9992
2 48071  87.8927  50.7908 0001873  77.2153 282.9185 13.13469680194680
ONEWEB-0177             
1 48074U 21025AJ  25077.47964489 -.00000242  00000+0 -69761-3 0  9996
2 48074  87.8925  50.7841 0001613  79.6949 280.4362 13.13467405193859
ONEWEB-0178             
1 48075U 21025AK  25077.42223052 -.00000173  00000+0 -50979-3 0  9990
2 48075  87.8927  50.8334 0001721  77.9572 282.1750 13.13473617193899
ONEWEB-0108             
1 48076U 21025AL  25077.45762856  .00000323  00000+0  84960-3 0  9996
2 48076  87.8921  50.7848 0001886  90.3497 269.7848 13.13469474193828
ONEWEB-0169             
1 48077U 21025AM  25077.48980613 -.00000257  00000+0 -73791-3 0  9991
2 48077  87.8925  50.7955 0001924  91.4285 268.7065 13.13467522192485
